[{"OBJECT_NAME":"STARLINK-2743","OBJECT_ID":"2021-044AW","EPOCH":"2026-03-09T10:18:22.656096","MEAN_MOTION":15.30200308,"ECCENTRICITY":9.944e-5,"INCLINATION":53.1601,"RA_OF_ASC_NODE":66.1547,"ARG_OF_PERICENTER":118.5506,"MEAN_ANOMALY":241.5595,"EPHEMERIS_TYPE":0,"CLASSIFICATION_TYPE":"U","NORAD_CAT_ID":48682,"ELEMENT_SET_NO":999,"REV_AT_EPOCH":26446,"BSTAR":-5.93542e-5,"MEAN_MOTION_DOT":-2.116e-5,"MEAN_MOTION_DDOT":0},{"OBJECT_NAME":"OBJECT B","OBJECT_ID":"2024-153B","EPOCH":"2026-03-09T23:15:18.632160","MEAN_MOTION":15.30512917,"ECCENTRICITY":0.00113423,"INCLINATION":97.6622,"RA_OF_ASC_NODE":204.9195,"ARG_OF_PERICENTER":149.8438,"MEAN_ANOMALY":210.3457,"EPHEMERIS_TYPE":0,"CLASSIFICATION_TYPE":"U","NORAD_CAT_ID":60746,"ELEMENT_SET_NO":999,"REV_AT_EPOCH":8476,"BSTAR":0.00066193599,"MEAN_MOTION_DOT":0.00019515,"MEAN_MOTION_DDOT":0}]
